EOSSAT-1                
1 55053U 23001AW  26068.73619225  .00007695  00000+0  24844-3 0  9992
2 55053  97.3357 130.2294 0011263 110.3168 249.9285 15.32339828176689
STARLINK-34541          
1 64771U 25147S   26068.74119963  .00020450  00000+0  70072-3 0  9995
2 64771  53.1600 242.2231 0000975  89.1397 270.9715 15.30198763 38696
